APRIZESAT 2             
1 28366U 04025A   26188.95006443  .00000168  00000+0  65179-4 0  9998
2 28366  98.1034 353.7569 0105430 186.7054 173.2730 14.38045201154623
SAUDICOMSAT 1           
1 28369U 04025D   26188.98369090  .00000245  00000+0  67358-4 0  9991
2 28369  98.5773 199.6765 0031305 321.6527  38.2444 14.55489966167152
SAUDICOMSAT 2           
1 28370U 04025E   26188.96506764  .00000140  00000+0  47978-4 0  9992
2 28370  98.6640 201.7987 0055123 195.6285 164.3209 14.49991822163117
APRIZESAT 1             
1 28372U 04025G   26188.97103391  .00000186  00000+0  57631-4 0  9991
2 28372  98.6305 200.2621 0045812  92.1567 268.4874 14.51789090164923
NANOSAT-1               
1 28493U 04049B   26189.19274941  .00000780  00000+0  10991-3 0  9993
2 28493  98.2301 326.3706 0003266 208.5874 151.5158 14.80201662158559
SAUDICOMSAT 7           
1 31119U 07012C   26188.86021588  .00000402  00000+0  80931-4 0  9998
2 31119  98.3791 163.4163 0056673 130.8041 229.8098 14.66131230 25464
SAUDICOMSAT 6           
1 31121U 07012E   26188.88784404  .00000315  00000+0  70217-4 0  9995
2 31121  98.4110 156.7911 0070367 262.2766  97.0440 14.62580128 23216
SAUDICOMSAT 5           
1 31124U 07012H   26188.87286536  .00000588  00000+0  10948-3 0  9996
2 31124  98.3502 164.1719 0048590  61.3738 299.2341 14.68185620 26631
SAUDICOMSAT 3           
1 31125U 07012J   26188.86551044  .00000630  00000+0  11100-3 0  9994
2 31125  98.3156 164.7113 0038800 348.7172  11.3160 14.70741724 27862
SAUDICOMSAT 4           
1 31127U 07012L   26188.85636861  .00000318  00000+0  68248-4 0  9995
2 31127  98.3996 161.8498 0063042 192.6754 167.2866 14.64530915 24310
APRIZESAT 4             
1 35684U 09041D   26188.75612090  .00000543  00000+0  71454-4 0  9991
2 35684  98.1405 264.4862 0041931 254.3409 105.3176 14.83907056914417
APRIZESAT 3             
1 35686U 09041F   26188.96348699  .00001077  00000+0  97724-4 0  9998
2 35686  98.2084 343.1857 0061350 359.6667   0.4501 14.96294757919484
S-NET D                 
1 43186U 18014G   26188.78109211  .00002498  00000+0  13032-3 0  9994
2 43186  97.5338  93.4434 0006668 316.9276  43.1435 15.16872537461888
S-NET B                 
1 43187U 18014H   26188.79294882  .00002738  00000+0  14261-3 0  9997
2 43187  97.5345  93.4425 0007191 310.8381  49.2228 15.16843316461889
S-NET A                 
1 43188U 18014J   26189.04372198  .00002549  00000+0  13284-3 0  9998
2 43188  97.5353  93.9045 0007100 310.6146  49.4469 15.16882407461927
S-NET C                 
1 43189U 18014K   26188.79693255  .00002816  00000+0  14656-3 0  9991
2 43189  97.5371  93.7369 0008248 301.2587  58.7837 15.16834866460437
SALSAT                  
1 46495U 20068K   26188.94384156  .00004490  00000+0  15694-3 0  9993
2 46495  97.8859 193.2762 0008470 220.3352 139.7260 15.30102262318532
OOV-CUBE (TUBSAT-30)    
1 60240U 24128F   26187.41788603  .00002062  00000+0  16592-3 0  9995
2 60240  61.9939 158.5121 0042205 138.0070 222.4270 15.02848993109004
LPNTSAT-001 (IOD-1)     
1 68408U 26065A   26187.97634907  .00002137  00000+0  10621-3 0  9999
2 68408  97.3994  68.0659 0014812 298.4631  61.5110 15.18641368 15263
